[
    {
        "CCSDS_OMM_VERS": "3.0",
        "COMMENT": "GENERATED VIA SPACE-TRACK.ORG API",
        "CREATION_DATE": "2025-03-02T18:08:23",
        "ORIGINATOR": "18 SPCS",
        "OBJECT_NAME": "COSMOS 2529 (GLONASS)",
        "OBJECT_ID": "2018-086A",
        "CENTER_NAME": "EARTH",
        "REF_FRAME": "TEME",
        "TIME_SYSTEM": "UTC",
        "MEAN_ELEMENT_THEORY": "SGP4",
        "EPOCH": "2025-03-02T02:33:19.198944",
        "MEAN_MOTION": "2.13101912",
        "ECCENTRICITY": "0.00074740",
        "INCLINATION": "64.2956",
        "RA_OF_ASC_NODE": "208.5408",
        "ARG_OF_PERICENTER": "257.3233",
        "MEAN_ANOMALY": "102.5573",
        "EPHEMERIS_TYPE": "0",
        "CLASSIFICATION_TYPE": "U",
        "NORAD_CAT_ID": "43687",
        "ELEMENT_SET_NO": "999",
        "REV_AT_EPOCH": "4922",
        "BSTAR": "0.00000000000000",
        "MEAN_MOTION_DOT": "0.00000053",
        "MEAN_MOTION_DDOT": "0.0000000000000",
        "SEMIMAJOR_AXIS": "25508.031",
        "PERIOD": "675.733",
        "APOAPSIS": "19148.961",
        "PERIAPSIS": "19110.832",
        "OBJECT_TYPE": "PAYLOAD",
        "RCS_SIZE": "LARGE",
        "COUNTRY_CODE": "CIS",
        "LAUNCH_DATE": "2018-11-03",
        "SITE": "PKMTR",
        "DECAY_DATE": null,
        "FILE": "4657142",
        "GP_ID": "282087203",
        "TLE_LINE0": "0 COSMOS 2529 (GLONASS)",
        "TLE_LINE1": "1 43687U 18086A   25061.10647221  .00000053  00000-0  00000-0 0  9996",
        "TLE_LINE2": "2 43687  64.2956 208.5408 0007474 257.3233 102.5573  2.13101912 49226"
    }
]